#aV2011 10  5  0  0   .00000000      96 DD+AD WGS84 FIT  NGA
## 1656 259200.00000000   900.00000000 55839  .0000000000000
+   31     1  2  3  4  5  6  7  8  9 10 11 12 13 14 15 16 17
+         18 19 20 21 22 23 25 26 27 28 29 30 31 32  0  0  0
+          0  0  0  0  0  0  0  0  0  0  0  0  0  0  0  0  0
+          0  0  0  0  0  0  0  0  0  0  0  0  0  0  0  0  0
+          0  0  0  0  0  0  0  0  0  0  0  0  0  0  0  0  0
++         0  0  0  0  0  0  0  0  0  0  0  0  0  0  0  0  0
++         0  0  0  0  0  0  0  0  0  0  0  0  0  0  0  0  0
++         0  0  0  0  0  0  0  0  0  0  0  0  0  0  0  0  0
++         0  0  0  0  0  0  0  0  0  0  0  0  0  0  0  0  0
++         0  0  0  0  0  0  0  0  0  0  0  0  0  0  0  0  0
%c cc cc ccc ccc cccc cccc cccc cccc ccccc ccccc ccccc ccccc
%c cc cc ccc ccc cccc cccc cccc cccc ccccc ccccc ccccc ccccc
%f  0.0000000  0.000000000  0.00000000000  0.000000000000000
%f  0.0000000  0.000000000  0.00000000000  0.000000000000000
%i    0    0    0    0      0      0      0      0         0
%i    0    0    0    0      0      0      0      0         0
/*      NGA, ST. LOUIS,MO.                                  
/*   EPHEMERIS COMPUTED FROM  3 DAYS OF DATA                
/* CCCCCCCCCCCCCCCCCCCCCCCCCCCCCCCCCCCCCCCCCCCCCCCCCCCCCCCCC
/* CCCCCCCCCCCCCCCCCCCCCCCCCCCCCCCCCCCCCCCCCCCCCCCCCCCCCCCCC
*  2011 10  5  9 15   .00000000                                                 
P  1 -22890.293274 -13462.789022    484.430473     -5.403130                    
V  1    926.060450  -2744.487499 -31743.490720      -.013787                    
P  2   7247.642989  19057.737274  17344.625772    359.345894                    
V  2 -19613.908797  -9594.664788  18322.969327       .018033                    
P  3   1179.123457 -18590.640753 -19276.807342    777.172343                    
V  3  20291.151270 -12466.586351  13882.320074       .050180                    
P  4  -8755.941030  12915.643297  21271.115700    251.261617                    
V  4 -23545.803923 -14451.357816   -570.870242       .112982                    
P  5   2502.738333  25992.908184  -4510.751132   -227.498568                    
V  5  -3256.275762   5651.312145  30960.019047      -.051731                    
P  6   6891.487081 -18929.221558 -17046.857778    -55.771868                    
V  6  20053.656298  -9539.873402  18801.026724       .078356                    
P  7 -22590.249214  -3245.540537 -13775.597192     30.145963                    
V  7 -13802.957714 -10712.195883  24899.315376       .019756                    
P  8 -17068.133819   3511.805093 -20180.503292       .044165                    
V  8 -20128.385839 -15590.003296  13723.760726      -.000043                    
P  9  21099.437013  15711.770128  -4095.384336    109.774881                    
V  9  -4896.450533   -578.908654 -31733.015468       .024393                    
P 10  -9787.959264  21157.758448  12136.047473    -15.279647                    
V 10  -2207.281108 -16065.920667  26136.753014      -.011627                    
P 11 -21659.847914 -13519.243142  -8262.027356   -191.934692                    
V 11  10886.056495  -1217.397653 -27390.047308      -.034942                    
P 12  11987.842329  14580.047087  18763.108034     26.580222                    
V 12  -2257.417276  23625.660928 -16756.122513       .023528                    
P 13 -24229.418748   3016.255887  10423.456686    248.196456                    
V 13  11597.549151  -6866.686697  28494.117388      -.018954                    
P 14  20280.319025 -15199.300762   7861.626535    175.394982                    
V 14   9746.341716  -2187.356053 -30182.954614       .017399                    
P 15  12732.700612  10132.395737 -21010.530312   -103.703623                    
V 15 -22939.097538  13708.408959  -7109.371491       .013974                    
P 16  -2310.192006 -25621.817862  -5928.452108   -201.606755                    
V 16   2942.279219  -7416.441189  31119.822275      -.021485                    
P 17 -19958.216164  15734.815847   7421.964530    172.185673                    
V 17  -9564.844079   1643.661354 -30016.159296      -.017249                    
P 18  15424.449529  -5885.900681 -20402.393284    160.619688                    
V 18     23.596237  26888.465742  -7979.617173       .018474                    
P 19  -9438.096863 -12399.693582 -21569.568809   -190.981509                    
V 19  24950.963309 -11057.991469  -4208.328312      -.040363                    
P 20 -13901.179101 -12835.238057  18519.957949     53.909117                    
V 20   1553.019792 -23913.951963 -15220.454891       .005584                    
P 21  21580.757298     18.872831 -15424.289038   -175.880505                    
V 21  15903.670831  12699.915151  21058.946811      -.024650                    
P 22  11023.999507 -19844.601368 -13518.601454    144.097409                    
V 22   2244.383983  17710.885624 -23960.652613      -.002555                    
P 23 -19727.912160  -3532.218301  17633.050246    270.490150                    
V 23  19016.627335 -11542.624196  18631.788391      -.031334                    
P 25  15030.165369   2098.626814  21770.154646     21.889690                    
V 25   -638.008169  27687.123147  -2199.274691       .017877                    
P 26    -34.554127  15830.153824 -21856.813771   -179.984624                    
V 26 -24363.238473  10076.603168   7925.800299      -.130195                    
P 27  18692.712487  16873.529160  -8376.134045    312.031905                    
V 27 -10854.787560  -3966.679465 -29554.842968       .038578                    
P 28 -12065.447911  16819.356005 -15968.330407     72.992131                    
V 28   -338.235670 -21414.849053 -21840.310492       .031357                    
P 29  24037.105800  -3346.135016  10809.937709    245.656667                    
V 29 -11195.067200   8166.429227  27625.004487       .032737                    
P 30  12410.169262 -13399.405026  18931.160077     74.515156                    
V 30   3263.887600  24652.703953  15003.659486      -.071259                    
P 31   4884.146697 -14349.882303  21991.196638    151.014315                    
V 31  23336.371546  14374.966071   4444.226385       .053963                    
P 32  -8172.240021 -20869.851770  14844.591002   -340.252699                    
V 32   3968.062847 -17900.904100 -22961.094829      -.064027                    
EOF
